0 ARIANE 3 DEB
1 26806U 88081G   19138.99261536 -.00000182  00000-0  00000+0 0  9991
2 26806   6.0055 101.7740 7037601 157.8348 272.0024  2.17262542149563
0 ARIANE 44LP DEB
1 26810U 88109M   19139.13189971 -.00000125  00000-0 -21969-2 0  9994
2 26810   6.2679 260.5586 7154626  53.4127 328.2150  2.16265126149594
0 ARIANE 44LP DEB
1 26812U 88109P   19138.59839913 -.00000196  00000-0  00000+0 0  9990
2 26812   6.9799 315.8535 7014075 308.2466 321.3765  2.21629265167099
0 SL-12 DEB
1 26813U 89001P   19139.17259015  .00007473  00000-0  11961-1 0  9991
2 26813  65.4623  55.0652 2121086 242.0566  95.0020 10.26683316615178
0 NIMBUS 2 DEB
1 26816U 66040L   19139.41672522  .00000538  00000-0  93364-3 0  9995
2 26816 100.3355 302.6685 0056766 296.8408 117.2547 13.48590926894701
0 COSMOS 2378
1 26818U 01023A   19139.12501348  .00000044  00000-0  30565-4 0  9999
2 26818  82.9275 338.0230 0034449  48.5878 311.8240 13.73933887899785
0 THORAD AGENA D DEB
1 26821U 70025QQ  19139.69038909  .00000820  00000-0  34282-3 0  9992
2 26821  99.9904  36.8414 0073652 181.3087 251.5807 14.28004369335082
0 DELTA 1 DEB
1 26822U 75052KC  19139.12374649  .00000072  00000-0  35930-3 0  9990
2 26822  99.6734 189.2111 0314272 110.3287 281.5415 12.83448847899252
0 DELTA 1 DEB
1 26823U 75052KD  19139.44828105  .00000416  00000-0  72308-3 0  9999
2 26823 100.0699 309.3428 0045399  17.7164   8.7790 13.49893820357792
0 INTELSAT 901
1 26824U 01024A   19139.80164456 -.00000223  00000-0  00000+0 0  9993
2 26824   0.9945  93.2968 0003255 331.0183  71.9550  1.00272045 65674
0 DELTA 1 DEB
1 26830U 75052KJ  19139.03508194  .00000350  00000-0  88422-3 0  9996
2 26830  99.7508  67.0167 0140005 121.1899 300.5392 13.22575994875163
0 DELTA 1 DEB
1 26832U 75052KL  19139.41053649  .00000007  00000-0  20763-3 0  9993
2 26832  99.6176 305.1768 0621444 297.3444  84.9281 12.21120943146878
0 DELTA 1 DEB
1 26835U 75052KP  19139.84298083  .00000354  00000-0  43476-3 0  9997
2 26835  99.6365 273.9899 0040831   7.8676 113.2407 13.72334177365315
0 DELTA 1 DEB
1 26837U 75052KR  19139.03842959 -.00000560  00000-0 -13496-2 0  9996
2 26837  99.6989 170.6118 0286415  57.5887 332.7644 13.03986254914541
0 DELTA 1 DEB
1 26839U 75052KT  19139.11281575  .00000053  00000-0  20306-3 0  9992
2 26839  99.9162  97.5361 0082154 259.5591 161.9904 13.29968635322653
0 DELTA 1 DEB
1 26841U 75052KV  19139.43493352  .00000113  00000-0  34490-3 0  9994
2 26841  99.9129 353.4966 0518333 135.0415 346.3989 12.84131097265663
0 DELTA 1 DEB
1 26842U 75052KW  19139.22970869  .00000522  00000-0  62986-3 0  9990
2 26842  99.6846  49.8563 0046408 132.0103  21.9410 13.71115630 62411
0 DELTA 1 DEB
1 26845U 75052KZ  19139.90450612 -.00000005  00000-0  85200-4 0  9999
2 26845  99.1626 177.3004 0439422 113.4914  11.1581 12.64738117134071
0 DELTA 1 DEB
1 26847U 75052LB  19139.89465132 -.00000016  00000-0  56541-4 0  9990
2 26847  99.8394 255.5784 0090125 205.7876 284.2948 13.26920241 71138
0 SL-3 DEB
1 26848U 75124C   19139.45546120 -.00000018  00000-0 -17558-4 0  9998
2 26848  81.2780 200.1807 0011789  76.8677 283.3809 14.09440170995063
0 ASTRA 2C
1 26853U 01025A   19139.81220010  .00000127  00000-0  00000+0 0  9998
2 26853   1.9292  88.2788 0003030 325.0498 139.9168  1.00272844 65654
0 DELTA 1 DEB
1 26861U 78026HV  19139.70985129 -.00000003  00000-0  15088-4 0  9990
2 26861  98.4921 115.8356 0102576 354.1980   5.8005 14.28135726822513
0 ARTEMIS
1 26863U 01029A   19139.08011296 -.00000271  00000-0  00000+0 0  9997
2 26863  13.3288  26.4087 0008093  77.6353 113.8483  0.99292765 66414
0 GOES 12
1 26871U 01031A   19139.14632649 -.00000204  00000-0  00000+0 0  9993
2 26871   7.5567  55.2431 0008532 271.0952 318.4879  0.99140700 65090
0 USA 159
1 26880U 01033A   19139.38332037 -.00000308  00000-0  00000+0 0  9994
2 26880  10.3965  33.0558 0000712 345.3782 307.2096  1.00270132  5688
0 COSMOS 2379
1 26892U 01037A   19139.10243138  .00000112  00000-0  00000+0 0  9996
2 26892  11.0413  31.9975 0001798 234.5569  46.7265  1.00355995 64931
0 SL-12 R/B(2)
1 26895U 01037D   19139.32549553  .00000121  00000-0  00000+0 0  9993
2 26895  11.0127  32.1798 0023877  10.1434 346.2402  1.00238453 64944
0 H-2A R/B
1 26899U 01038B   19139.15269055  .00004979  00000-0  49123-3 0  9993
2 26899  27.9013 138.7387 7130400 295.4027   9.1248  2.49569376153968
0 INTELSAT 902
1 26900U 01039A   19139.81987685  .00000023  00000-0  00000+0 0  9999
2 26900   0.0292 112.0849 0002975 312.0053 170.2619  1.00271975 64844
0 ARIANE 44L R/B
1 26901U 01039B   19139.55450941  .00001873  00000-0  55289-3 0  9998
2 26901   7.2863 104.9683 6841375  22.6229 356.7046  2.84558032163428
0 COSMOS 1217 DEB
1 26919U 80085H   19139.23142778 -.00000014  00000-0  00000+0 0  9990
2 26919  72.5615 352.6633 5697493 311.2665  12.0309  2.04894506161922
0 ARIANE 1 DEB
1 26922U 84023H   19139.46825392 -.00000094  00000-0  00000+0 0  9993
2 26922   8.9151 238.9165 6468986 180.0526 319.1607  2.77133134212496
0 EUTELSAT 12 WEST B
1 26927U 01042A   19139.80504677 -.00000110  00000-0  00000+0 0  9995
2 26927   0.1687  90.8129 0007566 328.8763  94.7987  1.00272125 64600
0 PCSAT
1 26931U 01043C   19139.15785796 -.00000058  00000-0  94974-5 0  9992
2 26931  67.0516  82.4712 0006352 279.9078  80.1306 14.30541925920609
0 SAPPHIRE
1 26932U 01043D   19139.23744705 -.00000068  00000-0  56420-5 0  9992
2 26932  67.0563  85.6284 0004387 278.3202  81.7401 14.30305435920628
0 RADUGA 1-6
1 26936U 01045A   19139.14353346 -.00000069  00000-0  00000+0 0  9993
2 26936  12.2254  32.9614 0012278 144.5969  20.4997  0.97743739 63297
0 TES
1 26957U 01049A   19139.38966000  .00000538  00000-0  35598-4 0  9998
2 26957  97.6932 251.6034 0039053 141.2787 219.1255 15.11149945964282
0 PROBA 1
1 26958U 01049B   19139.47361816 -.00000500  00000-0 -37629-4 0  9991
2 26958  97.6653  96.4589 0073665 139.6240 221.0478 14.95372351956319
0 PROBA 1
1 26958U 01049B   19139.80819324 -.00000468  00000-0 -34914-4 0  9997
2 26958  97.6654  96.7864 0073660 138.5037 222.1815 14.95372271956369
0 PROBA 1
1 26958U 01049B   19139.13904331 -.00000484  00000-0 -36313-4 0  9999
2 26958  97.6653  96.1316 0073646 140.7206 219.9394 14.95372723956268
0 PSLV R/B
1 26960U 01049D   19139.88675711  .00000612  00000-0  43148-4 0  9996
2 26960  97.7782 122.4726 0053548 303.2175  56.3925 15.07874435959776
0 SL-16 DEB
1 26980U 92093JK  19139.38433201  .00001291  00000-0  36791-3 0  9997
2 26980  71.1139 339.9072 0090545 325.2437  99.5597 14.44795953359597
0 ARIANE 42P+ DEB
1 26981U 92072L   19139.16200786 -.00000448  00000-0 -25911-1 0  9996
2 26981  10.0764  30.9726 6459165 329.8015   5.2686  2.89074741194202
0 COSMOS 1823 DEB
1 26982U 87020DU  19139.53543056 -.00000044  00000-0 -19469-3 0  9990
2 26982  73.6011 261.7048 0028153 344.1564  95.1915 12.42250098871998
0 DIRECTV 4S
1 26985U 01052A   19139.13238708 -.00000124  00000-0  00000+0 0  9990
2 26985   0.0121 323.3455 0002853  92.1455 127.4858  1.00270341 64064
0 COSMOS 2380 (GLONASS)
1 26989U 01053C   19139.12534278  .00000059  00000-0  00000+0 0  9991
2 26989  62.9834 150.0282 0004185   5.4889  80.6780  2.13103325135893
0 SL-12 R/B(2)
1 26992U 01053F   19139.42430146  .00000054  00000-0  00000+0 0  9992
2 26992  62.9971 148.8714 0015604 275.5933 261.6612  2.13596740136255
0 JASON
1 26997U 01055A   19139.48963455 -.00000084  00000-0 -94563-4 0  9996
2 26997  66.0392  74.8847 0006914 276.3897 204.7357 12.83996738816897
0 TIMED
1 26998U 01055B   19139.17649337  .00000091  00000-0  13897-4 0  9990
2 26998  74.0726   0.0313 0001670 226.0787 134.0256 14.88108930945747
0 DELTA 2 DEB (DPAF)
1 27000U 01055D   19139.14577337 -.00000007  00000-0  22338-3 0  9999
2 27000  66.0429  20.5896 0003206 239.2357 278.7857 12.84699679818305
0 METEOR 3M
1 27001U 01056A   19139.90208691 -.00000043  00000-0  12704-5 0  9997
2 27001  99.5129 276.7652 0013378 350.7444 119.8713 13.68831850871257
0 KOMPASS
1 27002U 01056B   19139.86506294 -.00000028  00000-0  17773-4 0  9996
2 27002  99.4477 274.5773 0018735 315.7860 157.7761 13.70310166872179
0 REFLECTOR
1 27005U 01056E   19139.71945907  .00000022  00000-0  73573-4 0  9994
2 27005  99.4204 276.0741 0018026 310.5195  49.4381 13.70751950872264
0 REFLECTOR
1 27005U 01056E   19139.50048621  .00000022  00000-0  73573-4 0  9998
2 27005  99.4204 275.8596 0018026 311.0874  48.8715 13.70751921872238
0 REFLECTOR
1 27005U 01056E   19139.06254047  .00000022  00000-0  73573-4 0  9990
2 27005  99.4204 275.4306 0018026 312.2233  47.7383 13.70751864872173
0 ARIANE 3 DEB
1 27026U 88081J   19139.12992214  .00000176  00000-0  31795-2 0  9996
2 27026   7.4199 127.9271 7111434  59.2110   2.1781  2.31566378206195
0 ARIANE 2 DEB
1 27030U 89006K   19139.31952079 -.00000312  00000-0 -16009-2 0  9990
2 27030   8.0470 286.5284 7130849  56.5026 352.4128  2.33742883149339
0 ARIANE 2 DEB
1 27032U 89006M   19139.27756076 -.00000152  00000-0  39909-3 0  9992
2 27032   8.8535   0.3766 7164400 266.5459 315.1344  2.28619101149270
0 ARIANE 2 DEB
1 27033U 89006N   19139.19814316 -.00000228  00000-0 -90416-3 0  9991
2 27033   8.5407 326.5977 7135332 336.6465 213.5733  2.31783289149738
0 ARIANE 2 DEB
1 27038U 89006T   19138.88336486  .00000020  00000-0  25918-3 0  9991
2 27038   8.1572 269.8913 7194082  85.3468 346.2370  2.29802487149379
0 ARIANE 2 DEB
1 27040U 89006V   19139.51914590  .00000005  00000-0  81152-2 0  9997
2 27040   7.7572 258.5308 7051940 125.4971 355.1462  2.23770224145543
0 ARIANE 2 DEB
1 27042U 89006X   19139.50128904  .00000044  00000-0  37267-2 0  9995
2 27042   7.9158 127.5347 7117115  16.6224  20.4421  2.25110797148392
